[{"OBJECT_NAME":"STARLINK-3814","OBJECT_ID":"2022-045E","EPOCH":"2026-03-09T16:57:12.384576","MEAN_MOTION":15.08855962,"ECCENTRICITY":0.00013385,"INCLINATION":53.2183,"RA_OF_ASC_NODE":209.0449,"ARG_OF_PERICENTER":67.7839,"MEAN_ANOMALY":292.3295,"EPHEMERIS_TYPE":0,"CLASSIFICATION_TYPE":"U","NORAD_CAT_ID":52335,"ELEMENT_SET_NO":999,"REV_AT_EPOCH":21564,"BSTAR":0.00014923953,"MEAN_MOTION_DOT":2.089e-5,"MEAN_MOTION_DDOT":0},{"OBJECT_NAME":"UNKNOWN","OBJECT_ID":"","EPOCH":"2026-03-07T20:34:11.411328","MEAN_MOTION":13.11333445,"ECCENTRICITY":0.0894896,"INCLINATION":65.8286,"RA_OF_ASC_NODE":264.5373,"ARG_OF_PERICENTER":244.8718,"MEAN_ANOMALY":105.693,"EPHEMERIS_TYPE":0,"CLASSIFICATION_TYPE":"U","NORAD_CAT_ID":81792,"ELEMENT_SET_NO":999,"REV_AT_EPOCH":9119,"BSTAR":0.00068623,"MEAN_MOTION_DOT":1.902e-5,"MEAN_MOTION_DDOT":0}]
